{"type": "FeatureCollection", "features": [ {"type": "Feature", "properties": {"norad_id": 31092, "name": "FENGYUN 1C DEB", "group": "fengyun-1c-debris", "lat": 45.683722175296545, "lon": 90.56793725292995, "alt_km": 1093.5059994007388, "timestamp": "2025-12-10T18:57:00.345961+00:00", "meta": {"OBJECT_NAME": "FENGYUN 1C DEB", "OBJECT_ID": "1999-025BGN", "EPOCH": "2025-11-15T07:00:52.552224", "MEAN_MOTION": 13.46401433, "ECCENTRICITY": 0.03278725, "INCLINATION": 99.7115, "RA_OF_ASC_NODE": 75.9227, "ARG_OF_PERICENTER": 204.4209, "MEAN_ANOMALY": 154.1084, "EPHEMERIS_TYPE": 0, "CLASSIFICATION_TYPE": "U", "NORAD_CAT_ID": 31092, "ELEMENT_SET_NO": 999, "REV_AT_EPOCH": 91512, "BSTAR": 0.0042000132, "MEAN_MOTION_DOT": 3.457e-05, "MEAN_MOTION_DDOT": 0}, "tle": {"line1": "1 31092U 99025BGN 25319.29227491  .00003457  00000+0  42000-2 0  9992", "line2": "2 31092  99.7115  75.9227 0327872 204.4209 154.1084 13.46401433915121"}}, "geometry": {"type": "Point", "coordinates": [90.56793725292995, 45.683722175296545]}}, {"type": "Feature", "properties": {"norad_id": 31093, "name": "FENGYUN 1C DEB", "group": "fengyun-1c-debris", "lat": -32.13870290315932, "lon": -170.58514886021578, "alt_km": 988.5756127734539, "timestamp": "2025-12-10T18:57:00.345971+00:00", "meta": {"OBJECT_NAME": "FENGYUN 1C DEB", "OBJECT_ID": "1999-025BGP", "EPOCH": "2025-12-09T06:35:04.462080", "MEAN_MOTION": 13.80627228, "ECCENTRICITY": 0.0208167, "INCLINATION": 98.5949, "RA_OF_ASC_NODE": 182.5834, "ARG_OF_PERICENTER": 232.6059, "MEAN_ANOMALY": 125.5985, "EPHEMERIS_TYPE": 0, "CLASSIFICATION_TYPE": "U", "NORAD_CAT_ID": 31093, "ELEMENT_SET_NO": 999, "REV_AT_EPOCH": 94459, "BSTAR": 0.00074746, "MEAN_MOTION_DOT": 8.84e-06, "MEAN_MOTION_DDOT": 0}, "tle": {"line1": "1 31093U 99025BGP 25343.27435720  .00000884  00000+0  74746-3 0  9998", "line2": "2 31093  98.5949 182.5834 0208167 232.6059 125.5985 13.80627228944599"}}, "geometry": {"type": "Point", "coordinates": [-170.58514886021578, -32.13870290315932]}}, {"type": "Feature", "properties": {"norad_id": 31094, "name": "FENGYUN 1C DEB", "group": "fengyun-1c-debris", "lat": -60.4132976085926, "lon": -131.36450512218588, "alt_km": 924.5924533334637, "timestamp": "2025-12-10T18:57:00.345981+00:00", "meta": {"OBJECT_NAME": "FENGYUN 1C DEB", "OBJECT_ID": "1999-025BGQ", "EPOCH": "2025-12-10T03:49:41.841984", "MEAN_MOTION": 14.0202515, "ECCENTRICITY": 0.01063884, "INCLINATION": 98.8553, "RA_OF_ASC_NODE": 212.087, "ARG_OF_PERICENTER": 54.1235, "MEAN_ANOMALY": 306.9754, "EPHEMERIS_TYPE": 0, "CLASSIFICATION_TYPE": "U", "NORAD_CAT_ID": 31094, "ELEMENT_SET_NO": 999, "REV_AT_EPOCH": 95583, "BSTAR": 0.0019514381, "MEAN_MOTION_DOT": 3.087e-05, "MEAN_MOTION_DDOT": 0}, "tle": {"line1": "1 31094U 99025BGQ 25344.15951206  .00003087  00000+0  19514-2 0  9998", "line2": "2 31094  98.8553 212.0870 0106388  54.1235 306.9754 14.02025150955837"}}, "geometry": {"type": "Point", "coordinates": [-131.36450512218588, -60.4132976085926]}}, {"type": "Feature", "properties": {"norad_id": 31095, "name": "FENGYUN 1C DEB", "group": "fengyun-1c-debris", "lat": -16.27295962434858, "lon": 130.14436132042198, "alt_km": 1554.603178862586, "timestamp": "2025-12-10T18:57:00.345991+00:00", "meta": {"OBJECT_NAME": "FENGYUN 1C DEB", "OBJECT_ID": "1999-025BGR", "EPOCH": "2025-12-10T04:20:23.393184", "MEAN_MOTION": 13.06664337, "ECCENTRICITY": 0.0499951, "INCLINATION": 98.5613, "RA_OF_ASC_NODE": 127.1367, "ARG_OF_PERICENTER": 197.9865, "MEAN_ANOMALY": 160.2986, "EPHEMERIS_TYPE": 0, "CLASSIFICATION_TYPE": "U", "NORAD_CAT_ID": 31095, "ELEMENT_SET_NO": 999, "REV_AT_EPOCH": 89414, "BSTAR": 0.00070249, "MEAN_MOTION_DOT": 3.95e-06, "MEAN_MOTION_DDOT": 0}, "tle": {"line1": "1 31095U 99025BGR 25344.18082631  .00000395  00000+0  70249-3 0  9991", "line2": "2 31095  98.5613 127.1367 0499951 197.9865 160.2986 13.06664337894148"}}, "geometry": {"type": "Point", "coordinates": [130.14436132042198, -16.27295962434858]}}, {"type": "Feature", "properties": {"norad_id": 31097, "name": "FENGYUN 1C DEB", "group": "fengyun-1c-debris", "lat": 26.429568480889866, "lon": 103.02942423925259, "alt_km": 738.5527250294454, "timestamp": "2025-12-10T18:57:00.346001+00:00", "meta": {"OBJECT_NAME": "FENGYUN 1C DEB", "OBJECT_ID": "1999-025BGT", "EPOCH": "2025-12-09T14:39:53.425728", "MEAN_MOTION": 14.46886925, "ECCENTRICITY": 0.0015062, "INCLINATION": 98.8581, "RA_OF_ASC_NODE": 106.243, "ARG_OF_PERICENTER": 279.3966, "MEAN_ANOMALY": 91.9398, "EPHEMERIS_TYPE": 0, "CLASSIFICATION_TYPE": "U", "NORAD_CAT_ID": 31097, "ELEMENT_SET_NO": 999, "REV_AT_EPOCH": 96993, "BSTAR": 0.0040814, "MEAN_MOTION_DOT": 0.00014813, "MEAN_MOTION_DDOT": 0}, "tle": {"line1": "1 31097U 99025BGT 25343.61103502  .00014813  00000+0  40814-2 0  9995", "line2": "2 31097  98.8581 106.2430 0015062 279.3966  91.9398 14.46886925969931"}}, "geometry": {"type": "Point", "coordinates": [103.02942423925259, 26.429568480889866]}}, {"type": "Feature", "properties": {"norad_id": 31098, "name": "FENGYUN 1C DEB", "group": "fengyun-1c-debris", "lat": -42.22790488694443, "lon": -85.51502808717825, "alt_km": 718.7194442505943, "timestamp": "2025-12-10T18:57:00.346011+00:00", "meta": {"OBJECT_NAME": "FENGYUN 1C DEB", "OBJECT_ID": "1999-025BGU", "EPOCH": "2025-12-10T06:20:39.058080", "MEAN_MOTION": 14.51416789, "ECCENTRICITY": 0.0014654, "INCLINATION": 98.8693, "RA_OF_ASC_NODE": 102.0789, "ARG_OF_PERICENTER": 256.4598, "MEAN_ANOMALY": 103.4962, "EPHEMERIS_TYPE": 0, "CLASSIFICATION_TYPE": "U", "NORAD_CAT_ID": 31098, "ELEMENT_SET_NO": 999, "REV_AT_EPOCH": 96921, "BSTAR": 0.0051251, "MEAN_MOTION_DOT": 0.00020489, "MEAN_MOTION_DDOT": 0}, "tle": {"line1": "1 31098U 99025BGU 25344.26434095  .00020489  00000+0  51251-2 0  9995", "line2": "2 31098  98.8693 102.0789 0014654 256.4598 103.4962 14.51416789969210"}}, "geometry": {"type": "Point", "coordinates": [-85.51502808717825, -42.22790488694443]}}, {"type": "Feature", "properties": {"norad_id": 31099, "name": "FENGYUN 1C DEB", "group": "fengyun-1c-debris", "lat": -33.50456857774782, "lon": 51.24295789486135, "alt_km": 791.6481899555192, "timestamp": "2025-12-10T18:57:00.346021+00:00", "meta": {"OBJECT_NAME": "FENGYUN 1C DEB", "OBJECT_ID": "1999-025BGV", "EPOCH": "2025-12-09T05:33:14.356224", "MEAN_MOTION": 14.2791412, "ECCENTRICITY": 0.0062771, "INCLINATION": 98.9385, "RA_OF_ASC_NODE": 235.6295, "ARG_OF_PERICENTER": 291.7398, "MEAN_ANOMALY": 197.5566, "EPHEMERIS_TYPE": 0, "CLASSIFICATION_TYPE": "U", "NORAD_CAT_ID": 31099, "ELEMENT_SET_NO": 999, "REV_AT_EPOCH": 97421, "BSTAR": 0.00056682, "MEAN_MOTION_DOT": 1.387e-05, "MEAN_MOTION_DDOT": 0}, "tle": {"line1": "1 31099U 99025BGV 25343.23141616  .00001387  00000+0  56682-3 0  9996", "line2": "2 31099  98.9385 235.6295 0062771 291.7398 197.5566 14.27914120974213"}}, "geometry": {"type": "Point", "coordinates": [51.24295789486135, -33.50456857774782]}}, {"type": "Feature", "properties": {"norad_id": 31146, "name": "FENGYUN 1C DEB", "group": "fengyun-1c-debris", "lat": 71.01718216669506, "lon": -112.08569365915379, "alt_km": 814.3488797315176, "timestamp": "2025-12-10T18:57:00.346031+00:00", "meta": {"OBJECT_NAME": "FENGYUN 1C DEB", "OBJECT_ID": "1999-025BGY", "EPOCH": "2025-12-10T06:49:27.939360", "MEAN_MOTION": 14.27696486, "ECCENTRICITY": 0.0212562, "INCLINATION": 99.0414, "RA_OF_ASC_NODE": 274.9645, "ARG_OF_PERICENTER": 174.1534, "MEAN_ANOMALY": 186.2203, "EPHEMERIS_TYPE": 0, "CLASSIFICATION_TYPE": "U", "NORAD_CAT_ID": 31146, "ELEMENT_SET_NO": 999, "REV_AT_EPOCH": 96730, "BSTAR": 0.00051416, "MEAN_MOTION_DOT": 1.561e-05, "MEAN_MOTION_DDOT": 0}, "tle": {"line1": "1 31146U 99025BGY 25344.28435115  .00001561  00000+0  51416-3 0  9999", "line2": "2 31146  99.0414 274.9645 0212562 174.1534 186.2203 14.27696486967304"}}, "geometry": {"type": "Point", "coordinates": [-112.08569365915379, 71.01718216669506]}}, {"type": "Feature", "properties": {"norad_id": 31148, "name": "FENGYUN 1C DEB", "group": "fengyun-1c-debris", "lat": 43.15677057151463, "lon": 58.69201847374396, "alt_km": 725.2056367195446, "timestamp": "2025-12-10T18:57:00.346041+00:00", "meta": {"OBJECT_NAME": "FENGYUN 1C DEB", "OBJECT_ID": "1999-025BHA", "EPOCH": "2025-12-10T03:21:39.182976", "MEAN_MOTION": 14.43331656, "ECCENTRICITY": 0.01364896, "INCLINATION": 98.8656, "RA_OF_ASC_NODE": 229.6006, "ARG_OF_PERICENTER": 58.3405, "MEAN_ANOMALY": 303.1013, "EPHEMERIS_TYPE": 0, "CLASSIFICATION_TYPE": "U", "NORAD_CAT_ID": 31148, "ELEMENT_SET_NO": 999, "REV_AT_EPOCH": 97493, "BSTAR": 0.0011471906, "MEAN_MOTION_DOT": 4.28e-05, "MEAN_MOTION_DDOT": 0}, "tle": {"line1": "1 31148U 99025BHA 25344.14003684  .00004280  00000+0  11472-2 0  9996", "line2": "2 31148  98.8656 229.6006 0136489  58.3405 303.1013 14.43331656974931"}}, "geometry": {"type": "Point", "coordinates": [58.69201847374396, 43.15677057151463]}}, {"type": "Feature", "properties": {"norad_id": 31150, "name": "FENGYUN 1C DEB", "group": "fengyun-1c-debris", "lat": 75.73654906473567, "lon": -149.5315013340882, "alt_km": 837.9825951605626, "timestamp": "2025-12-10T18:57:00.346052+00:00", "meta": {"OBJECT_NAME": "FENGYUN 1C DEB", "OBJECT_ID": "1999-025BHC", "EPOCH": "2025-12-09T23:54:48.374208", "MEAN_MOTION": 14.12730691, "ECCENTRICITY": 0.00150913, "INCLINATION": 98.6858, "RA_OF_ASC_NODE": 352.7353, "ARG_OF_PERICENTER": 167.244, "MEAN_ANOMALY": 222.451, "EPHEMERIS_TYPE": 0, "CLASSIFICATION_TYPE": "U", "NORAD_CAT_ID": 31150, "ELEMENT_SET_NO": 999, "REV_AT_EPOCH": 96258, "BSTAR": 0.00021059487, "MEAN_MOTION_DOT": 3.49e-06, "MEAN_MOTION_DDOT": 0}, "tle": {"line1": "1 31150U 99025BHC 25343.99639322  .00000349  00000+0  21059-3 0  9990", "line2": "2 31150  98.6858 352.7353 0015091 167.2440 222.4510 14.12730691962584"}}, "geometry": {"type": "Point", "coordinates": [-149.5315013340882, 75.73654906473567]}}]}